SL-8 R/B                
1 20775U 90078B   26062.99793982  .00020766  00000+0  61063-3 0  9996
2 20775  82.8989 256.4302 0363616  33.1204 329.2215 14.88836115808451
SL-8 R/B                
1 21088U 91006B   26063.39501354  .00000073  00000+0  57987-4 0  9991
2 21088  82.9464 173.9817 0023349  52.6107  11.0797 13.77493534763346
OKEAN-3                 
1 21397U 91039A   26063.22629433  .00004808  00000+0  33850-3 0  9993
2 21397  82.5198 342.1351 0014281 358.1735   1.9436 15.04758384864213
COSMOS 2151             
1 21422U 91042A   26063.54712018  .00002928  00000+0  23248-3 0  9994
2 21422  82.4928  88.6381 0014096  78.9728 281.3081 15.00081531862420
SL-14 R/B               
1 21423U 91042B   26063.49071818  .00000710  00000+0  86799-4 0  9993
2 21423  82.4912 225.0577 0015620 257.1611 102.7858 14.81823576852309
ERS-1                   
1 21574U 91050A   26063.48399711  .00000476  00000+0  16692-3 0  9996
2 21574  98.7885  81.5877 0031341 216.0960 143.8111 14.39444979814981
ARIANE 40 R/B           
1 21610U 91050F   26063.13125813  .00000424  00000+0  13953-3 0  9999
2 21610  98.2024 115.5761 0004362  93.2924 266.8765 14.42889010818191
INTERCOSMOS 25          
1 21819U 91086A   26063.12651537  .00001733  00000+0  33299-3 0  9994
2 21819  82.6063 313.3703 1487059 128.9167 245.4246 12.11982538496013
SL-8 R/B                
1 21876U 92008B   26063.13439132  .00000006  00000+0 -10063-4 0  9996
2 21876  82.9227 271.9119 0035269 148.4698 331.0453 13.75969799708651
SL-8 R/B                
1 21938U 92020B   26063.38363259  .00000105  00000+0  92841-4 0  9995
2 21938  82.9341 157.7001 0027874 314.2233 113.7047 13.75548821700407
USA 81                  
1 21949U 92023A   26063.27975751  .00000261  00000+0  89261-4 0  9999
2 21949  85.0095 134.5619 0002602  81.8580 278.2908 14.32366052 94015
COSMOS 2219             
1 22219U 92076A   26063.35712106  .00000306  00000+0  18506-3 0  9993
2 22219  71.0621  29.2143 0019292 214.1799 145.8083 14.14089889717626
SL-16 R/B               
1 22220U 92076B   26063.47284111  .00000019  00000+0  33151-4 0  9993
2 22220  71.0000 199.3614 0010578 106.0891 318.3363 14.16860223721096
COSMOS 2221             
1 22236U 92080A   26063.08646264  .00002785  00000+0  24463-3 0  9990
2 22236  82.5016 284.4495 0013541 206.5778 153.4751 14.96175748779959
SL-16 R/B               
1 22285U 92093B   26063.29790013 -.00000143  00000+0 -48895-4 0  9997
2 22285  71.0239  15.5835 0006316 299.4224  60.6268 14.15449479712396
COSMOS 2228             
1 22286U 92094A   26063.57437234  .00003487  00000+0  29883-3 0  9990
2 22286  82.5146 242.2092 0017114 322.9580  37.0460 14.97160171775299
SL-16 R/B               
1 22566U 93016B   26063.47914963  .00000314  00000+0  18542-3 0  9990
2 22566  71.0060 226.1247 0011423 321.4318  38.5988 14.15305908701436
